[{"OBJECT_NAME":"STARLINK-5430","OBJECT_ID":"2022-175AX","EPOCH":"2026-03-09T03:50:54.068928","MEAN_MOTION":15.08825576,"ECCENTRICITY":0.00014372,"INCLINATION":53.2176,"RA_OF_ASC_NODE":46.1614,"ARG_OF_PERICENTER":82.8452,"MEAN_ANOMALY":277.2704,"EPHEMERIS_TYPE":0,"CLASSIFICATION_TYPE":"U","NORAD_CAT_ID":54803,"ELEMENT_SET_NO":999,"REV_AT_EPOCH":17984,"BSTAR":-2.7971383e-5,"MEAN_MOTION_DOT":-7.33e-6,"MEAN_MOTION_DDOT":0},{"OBJECT_NAME":"PSLV DEB","OBJECT_ID":"2001-049CY","EPOCH":"2026-03-09T18:20:37.296384","MEAN_MOTION":15.08389698,"ECCENTRICITY":0.00190632,"INCLINATION":97.9861,"RA_OF_ASC_NODE":156.2845,"ARG_OF_PERICENTER":340.3269,"MEAN_ANOMALY":19.722,"EPHEMERIS_TYPE":0,"CLASSIFICATION_TYPE":"U","NORAD_CAT_ID":27152,"ELEMENT_SET_NO":999,"REV_AT_EPOCH":30598,"BSTAR":0.00053695108,"MEAN_MOTION_DOT":8.318e-5,"MEAN_MOTION_DDOT":0}]
